OBJECT_NAME,OBJECT_ID,EPOCH,MEAN_MOTION,ECCENTRICITY,INCLINATION,RA_OF_ASC_NODE,ARG_OF_PERICENTER,MEAN_ANOMALY,EPHEMERIS_TYPE,CLASSIFICATION_TYPE,NORAD_CAT_ID,ELEMENT_SET_NO,REV_AT_EPOCH,BSTAR,MEAN_MOTION_DOT,MEAN_MOTION_DDOT
STARLINK-32161,2024-150L,2026-06-15T09:50:43.584288,15.34389894,.00010248,53.1597,211.6502,81.3252,278.7867,0,U,60593,999,10294,.1539591E-4,.144E-5,0
STARLINK-32210,2024-150M,2026-06-15T19:49:51.943296,15.34386587,.00012549,53.1603,209.9770,91.5375,268.5772,0,U,60594,999,10308,.24468055E-4,.45E-5,0
STARLINK-32202,2024-150N,2026-06-15T10:06:49.210560,15.31705901,.00020137,53.1612,213.1390,153.1359,206.9747,0,U,60595,999,10300,-.44683671E-4,-.1752E-4,0
STARLINK-31930,2024-150P,2026-06-15T19:40:46.634016,15.34374135,.00015556,53.1590,209.9453,110.2896,249.8274,0,U,60596,999,10300,-.44881477E-4,-.1891E-4,0
STARLINK-32162,2024-150Q,2026-06-15T20:07:24.531168,15.30190974,.00011818,53.1602,211.4734,92.0364,268.0772,0,U,60597,999,10306,.22754E-5,-.292E-5,0
STARLINK-32208,2024-150R,2026-06-15T20:11:58.418304,15.30188283,.00012373,53.1598,211.4943,91.9022,268.2121,0,U,60598,999,10306,.2949608E-5,-.272E-5,0
STARLINK-32165,2024-150S,2026-06-15T10:33:59.022144,15.30184047,.00011649,53.1597,213.2522,88.8330,271.2804,0,U,60599,999,10300,-.57338024E-4,-.2056E-4,0
STARLINK-31923,2024-150T,2026-06-15T19:43:06.195072,15.30192421,.00011011,53.1602,211.3674,98.5854,261.5271,0,U,60600,999,10306,-.11952063E-4,-.713E-5,0
STARLINK-31988,2024-150U,2026-06-15T19:37:46.045920,15.34374569,.000129,53.1596,209.9290,87.5400,272.5751,0,U,60601,999,10300,-.2474376E-4,-.1211E-4,0
STARLINK-31983,2024-150V,2026-06-15T09:41:38.543712,15.34385812,.00012883,53.1605,211.6114,86.7597,273.3553,0,U,60602,999,10294,-.2198697E-5,-.45E-5,0
STARLINK-31874,2024-150W,2026-06-15T10:02:51.219168,15.34390152,.00011049,53.1572,211.7019,92.1104,268.0025,0,U,60603,999,10302,.14754253E-3,.461E-4,0
STARLINK-32039,2024-150X,2026-06-15T20:44:38.779008,15.30180825,.0001288,53.1593,213.7653,84.8242,275.2906,0,U,60604,999,10303,-.10939E-3,-.3595E-4,0
ZHONGXING-4A,2024-151A,2026-06-16T01:36:01.469088,1.00274048,.0000112,1.3169,270.8530,60.5688,75.1306,0,U,60606,999,674,0,-.361E-5,0
STARLINK-11247 [DTC],2024-152A,2026-06-15T19:44:22.888896,15.69709852,.00009394,53.1587,352.8148,101.8945,258.2178,0,U,60720,999,10424,.2182434E-5,-.324E-5,0
STARLINK-11259 [DTC],2024-152B,2026-06-15T19:37:18.424704,15.69720465,.00007538,53.1584,352.7812,105.8226,254.2875,0,U,60721,999,10424,.11816947E-4,.844E-5,0
STARLINK-11188 [DTC],2024-152C,2026-06-15T19:30:15.747264,15.69699075,.00010192,53.1589,352.7514,110.9679,249.1448,0,U,60722,999,10436,-.10326542E-4,-.1839E-4,0
STARLINK-11272 [DTC],2024-152D,2026-06-15T19:16:07.377024,15.69716600,.00010567,53.1602,352.6845,81.1836,278.9302,0,U,60723,999,10424,.1479246E-5,-.409E-5,0
STARLINK-11261 [DTC],2024-152E,2026-06-15T19:23:11.366016,15.69712996,.00009373,53.1590,352.7207,83.2291,276.8833,0,U,60724,999,10424,.12318315E-4,.904E-5,0
STARLINK-11263 [DTC],2024-152F,2026-06-15T19:09:03.743136,15.69710691,.00010308,53.1594,352.6492,89.4716,270.6420,0,U,60725,999,10424,.1362582E-5,-.423E-5,0
STARLINK-11235 [DTC],2024-152G,2026-06-15T19:01:59.781792,15.69714083,.00009278,53.1593,352.6163,98.6734,261.4389,0,U,60726,999,10437,-.7447937E-5,-.1491E-4,0
STARLINK-11080 [DTC],2024-152H,2026-06-15T18:54:55.886976,15.69710744,.00007447,53.1585,352.5843,87.8815,272.2288,0,U,60727,999,10437,.2572489E-5,-.276E-5,0
STARLINK-11249 [DTC],2024-152J,2026-06-15T18:47:52.113120,15.69683871,.00009839,53.1598,352.5543,49.9681,310.1424,0,U,60728,999,10424,.65902292E-4,.7394E-4,0
STARLINK-11146 [DTC],2024-152K,2026-06-15T18:40:48.010944,15.69705812,.00009562,53.1606,352.5095,86.2443,273.8684,0,U,60729,999,10437,.8634342E-5,.458E-5,0
STARLINK-11255 [DTC],2024-152L,2026-06-15T17:02:04.406208,15.69679176,.00010197,53.1596,352.8021,95.4860,264.6274,0,U,60730,999,10424,.57384206E-4,.636E-4,0
STARLINK-11254 [DTC],2024-152M,2026-06-15T18:26:40.821792,15.69701616,.00008598,53.1596,352.4535,79.0120,281.0994,0,U,60731,999,10425,.14749579E-4,.1198E-4,0
STARLINK-11266 [DTC],2024-152N,2026-06-15T18:19:37.410816,15.69687814,.00012186,53.1586,352.4102,76.7936,283.3217,0,U,60732,999,10424,.39258748E-4,.4166E-4,0
STARLINK-32253,2024-152P,2026-06-16T04:42:10.415232,15.30192379,.0000777,53.1611,170.7930,90.9604,269.1486,0,U,60733,999,10188,-.43933E-4,-.1659E-4,0
STARLINK-32179,2024-152Q,2026-06-16T04:08:54.689280,15.30199523,.0001201,53.1605,171.3719,100.8179,259.2957,0,U,60734,999,10179,.12374E-5,-.322E-5,0
STARLINK-32289,2024-152T,2026-06-16T03:50:39.011136,15.30202085,.0001158,53.1603,171.2926,88.9815,271.1319,0,U,60737,999,10192,.66847E-4,.1621E-4,0
STARLINK-32304,2024-152U,2026-06-16T03:46:06.322368,15.30193178,.0001289,53.1609,171.2746,98.6226,261.4921,0,U,60738,999,10192,.21934E-4,.29E-5,0
STARLINK-32235,2024-152V,2026-06-16T03:41:32.932032,15.30190535,.0001257,53.1604,171.2501,77.0466,283.0675,0,U,60739,999,10187,.22415E-4,.305E-5,0
STARLINK-32315,2024-152W,2026-06-16T03:36:59.376672,15.30190626,.0001384,53.1611,171.2316,105.1104,255.0050,0,U,60740,999,10179,.20766E-4,.256E-5,0
2024-153A,2024-153A,2026-06-16T04:33:31.394880,15.47063063,.0007006,97.6730,308.9099,148.5762,211.5906,0,U,60745,999,9995,.1084E-2,.55105E-3,0
2024-153B,2024-153B,2026-06-16T04:53:08.695968,15.33316668,.0010522,97.6784,306.6314,159.3618,200.8050,0,U,60746,999,9980,.36411E-3,.11664E-3,0
2024-153C,2024-153C,2026-06-16T04:34:01.673760,15.41478107,.000946,97.6775,309.5546,152.3570,207.8180,0,U,60747,999,9999,.55193E-3,.23106E-3,0
2024-153D,2024-153D,2026-06-16T04:26:25.137888,15.27853266,.0002176,97.6792,305.0658,170.9604,189.1674,0,U,60748,999,9969,.48901E-3,.13231E-3,0
2024-153E,2024-153E,2026-06-16T05:06:56.985984,15.27036680,.0001031,97.6719,304.5251,282.5796,77.5327,0,U,60749,999,9968,.50519E-3,.13336E-3,0
2024-153F,2024-153F,2026-06-16T03:44:25.247328,15.25928683,.0004554,97.6717,303.7055,243.4130,116.6641,0,U,60750,999,9964,.45141E-3,.11516E-3,0
STARLINK-11242 [DTC],2024-154A,2026-06-15T20:10:43.275360,15.69698781,.00011023,53.1586,7.1591,49.8981,310.2133,0,U,60903,999,10393,.19048645E-4,.1719E-4,0
STARLINK-11256 [DTC],2024-154B,2026-06-15T20:03:39.192192,15.69710410,.00009391,53.1589,7.1282,92.2796,267.8329,0,U,60904,999,10393,-.3633029E-5,-.1028E-4,0
STARLINK-11159 [DTC],2024-154C,2026-06-15T19:49:40.372608,15.69713756,.00006621,53.1581,7.7976,69.3335,290.7754,0,U,60905,999,10392,-.10799825E-4,-.1896E-4,0
STARLINK-11264 [DTC],2024-154D,2026-06-15T19:42:36.466560,15.69709899,.00009114,53.1601,7.7664,88.3496,271.7626,0,U,60906,999,10392,.1320058E-5,-.428E-5,0
STARLINK-11226 [DTC],2024-154E,2026-06-15T19:35:28.920480,15.69749988,.0001068,53.1595,7.7324,113.1792,246.9338,0,U,60907,999,10392,.57131008E-4,.6349E-4,0
STARLINK-11229 [DTC],2024-154F,2026-06-15T19:28:28.885152,15.69704627,.00009368,53.1606,7.6943,102.5744,257.5379,0,U,60908,999,10392,.10040507E-4,.628E-5,0
STARLINK-11265 [DTC],2024-154G,2026-06-15T19:56:44.420352,15.69697528,.000107,53.1595,7.8256,97.9338,262.1802,0,U,60909,999,10392,.12450996E-4,.919E-5,0
STARLINK-11250 [DTC],2024-154H,2026-06-15T19:21:25.298784,15.69698221,.00013137,53.1594,7.6634,79.1553,280.9613,0,U,60910,999,10392,.12448395E-4,.919E-5,0
STARLINK-11190 [DTC],2024-154J,2026-06-15T20:46:02.258688,15.69708573,.00010683,53.1595,7.3189,78.4709,281.6429,0,U,60911,999,10392,-.3866868E-5,-.1057E-4,0
STARLINK-11225 [DTC],2024-154K,2026-06-15T20:38:59.472384,15.69682675,.00009022,53.1589,7.2808,135.2212,224.8878,0,U,60912,999,10392,-.31424106E-4,-.4389E-4,0
STARLINK-11273 [DTC],2024-154L,2026-06-15T19:00:13.356864,15.69705270,.00008819,53.1593,7.5657,92.2786,267.8333,0,U,60913,999,10391,.4822694E-5,-.4E-7,0
STARLINK-11271 [DTC],2024-154N,2026-06-15T20:17:46.798656,15.69710131,.00009683,53.1592,7.1881,85.4476,274.6653,0,U,60915,999,10392,.2463448E-5,-.29E-5,0
STARLINK-32371,2024-154P,2026-06-15T18:21:47.637216,15.31698907,.00011924,53.1600,188.0868,91.5374,268.5764,0,U,60916,999,10135,.16719674E-4,.154E-5,0
STARLINK-32369,2024-154Q,2026-06-16T00:00:02.998944,15.31688505,.0001192,53.1563,186.9446,100.5121,141.2314,0,U,60917,999,572,.15161E-2,.46961E-3,0
STARLINK-32317,2024-154R,2026-06-16T04:49:59.299392,15.30192895,.0001095,53.1596,186.5451,82.3457,277.7668,0,U,60918,999,10141,.22305E-4,.301E-5,0
STARLINK-32367,2024-154S,2026-06-16T00:00:02.998944,15.30176165,.0001183,53.1558,186.8702,96.8342,181.7827,0,U,60919,999,587,.14275E-2,.42128E-3,0
STARLINK-32345,2024-154T,2026-06-16T04:51:30.367584,15.30191010,.0001079,53.1603,186.5497,79.3610,280.7512,0,U,60920,999,10142,.33072E-4,.62E-5,0
STARLINK-32356,2024-154U,2026-06-15T18:08:21.000768,15.31709905,.00010631,53.1578,188.0281,83.9152,276.1970,0,U,60921,999,10136,.89912305E-4,.2427E-4,0
STARLINK-32274,2024-154V,2026-06-15T18:59:50.681184,15.30178412,.00012915,53.1597,188.2490,86.4600,273.6548,0,U,60922,999,10136,-.73935656E-4,-.2547E-4,0
STARLINK-32373,2024-154W,2026-06-15T08:15:08.227008,15.30193269,.00013602,53.1596,190.4317,81.8355,278.2800,0,U,60923,999,10129,.18747739E-4,.196E-5,0
STARLINK-11239 [DTC],2024-155A,2026-06-15T20:14:22.299360,15.69704509,.00014764,53.1592,217.7513,102.2248,257.8935,0,U,60924,999,10381,.35042574E-4,.3657E-4,0
STARLINK-11245 [DTC],2024-155B,2026-06-15T10:43:04.465344,15.69700041,.0001059,53.1588,219.5371,52.5486,307.5628,0,U,60925,999,10375,.2924999E-5,-.234E-5,0
STARLINK-11244 [DTC],2024-155C,2026-06-15T10:28:56.664480,15.69697881,.00009948,53.1591,219.4706,74.0615,286.0512,0,U,60926,999,10380,.10247618E-4,.653E-5,0
STARLINK-11243 [DTC],2024-155D,2026-06-15T10:36:00.624960,15.69692729,.00007486,53.1582,219.5098,110.4755,249.6343,0,U,60927,999,10375,.23476064E-4,.2255E-4,0
STARLINK-11238 [DTC],2024-155E,2026-06-15T10:21:53.136864,15.69690941,.00010042,53.1582,219.4348,61.1753,298.9365,0,U,60928,999,10380,.23564883E-4,.2265E-4,0
